[{"OBJECT_NAME":"CS1","OBJECT_ID":"2021-088B","EPOCH":"2026-03-09T18:02:30.253920","MEAN_MOTION":15.31848439,"ECCENTRICITY":0.00141292,"INCLINATION":97.3882,"RA_OF_ASC_NODE":132.1684,"ARG_OF_PERICENTER":78.0335,"MEAN_ANOMALY":282.249,"EPHEMERIS_TYPE":0,"CLASSIFICATION_TYPE":"U","NORAD_CAT_ID":49261,"ELEMENT_SET_NO":999,"REV_AT_EPOCH":24518,"BSTAR":0.00051175576,"MEAN_MOTION_DOT":0.00015722,"MEAN_MOTION_DDOT":0},{"OBJECT_NAME":"STARLINK-30149","OBJECT_ID":"2023-113X","EPOCH":"2026-03-09T22:00:01.999584","MEAN_MOTION":15.26748218,"ECCENTRICITY":0.00018049,"INCLINATION":43.0011,"RA_OF_ASC_NODE":14.4243,"ARG_OF_PERICENTER":259.3429,"MEAN_ANOMALY":119.5076,"EPHEMERIS_TYPE":0,"CLASSIFICATION_TYPE":"U","NORAD_CAT_ID":57516,"ELEMENT_SET_NO":999,"REV_AT_EPOCH":573,"BSTAR":0.00024904528,"MEAN_MOTION_DOT":6.428e-5,"MEAN_MOTION_DDOT":0}]
